{
    "links": {
        "self": "http://www.neowsapp.com/rest/v1/neo/3843766?api_key=iIulBulltgU6a56xZRHN4H3l9WmuAYTsLGpBGhQ2"
    },
    "id": "3843766",
    "neo_reference_id": "3843766",
    "name": "(2019 RJ)",
    "designation": "2019 RJ",
    "nasa_jpl_url": "http://ssd.jpl.nasa.gov/sbdb.cgi?sstr=3843766",
    "absolute_magnitude_h": 25.7,
    "estimated_diameter": {
        "kilometers": {
            "estimated_diameter_min": 0.0192555078,
            "estimated_diameter_max": 0.0430566244
        },
        "meters": {
            "estimated_diameter_min": 19.2555078188,
            "estimated_diameter_max": 43.0566244241
        },
        "miles": {
            "estimated_diameter_min": 0.0119648141,
            "estimated_diameter_max": 0.0267541378
        },
        "feet": {
            "estimated_diameter_min": 63.1742402722,
            "estimated_diameter_max": 141.2618956756
        }
    },
    "is_potentially_hazardous_asteroid": false,
    "close_approach_data": [
        {
            "close_approach_date": "2016-02-21",
            "close_approach_date_full": "2016-Feb-21 09:54",
            "epoch_date_close_approach": 1456048440000,
            "relative_velocity": {
                "kilometers_per_second": "13.5009979922",
                "kilometers_per_hour": "48603.5927718023",
                "miles_per_hour": "30200.382408679"
            },
            "miss_distance": {
                "astronomical": "0.1794142819",
                "lunar": "69.7921556591",
                "kilometers": "26839994.419819553",
                "miles": "16677599.1819257114"
            },
            "orbiting_body": "Earth"
        },
        {
            "close_approach_date": "2019-09-10",
            "close_approach_date_full": "2019-Sep-10 01:14",
            "epoch_date_close_approach": 1568078040000,
            "relative_velocity": {
                "kilometers_per_second": "13.641357504",
                "kilometers_per_hour": "49108.8870145379",
                "miles_per_hour": "30514.3526007833"
            },
            "miss_distance": {
                "astronomical": "0.0589286391",
                "lunar": "22.9232406099",
                "kilometers": "8815598.891358717",
                "miles": "5477759.1440236146"
            },
            "orbiting_body": "Earth"
        },
        {
            "close_approach_date": "2020-02-28",
            "close_approach_date_full": "2020-Feb-28 08:23",
            "epoch_date_close_approach": 1582878180000,
            "relative_velocity": {
                "kilometers_per_second": "12.5295120906",
                "kilometers_per_hour": "45106.2435260797",
                "miles_per_hour": "28027.2655954133"
            },
            "miss_distance": {
                "astronomical": "0.2730966911",
                "lunar": "106.2346128379",
                "kilometers": "40854683.292607957",
                "miles": "25385923.0371335266"
            },
            "orbiting_body": "Earth"
        },
        {
            "close_approach_date": "2023-09-03",
            "close_approach_date_full": "2023-Sep-03 01:57",
            "epoch_date_close_approach": 1693706220000,
            "relative_velocity": {
                "kilometers_per_second": "17.2342517541",
                "kilometers_per_hour": "62043.3063148633",
                "miles_per_hour": "38551.2977488105"
            },
            "miss_distance": {
                "astronomical": "0.2103612874",
                "lunar": "81.8305407986",
                "kilometers": "31469600.525497838",
                "miles": "19554303.0214646444"
            },
            "orbiting_body": "Earth"
        }
    ],
    "orbital_data": {
        "orbit_id": "2",
        "orbit_determination_date": "2019-09-06 06:02:26",
        "first_observation_date": "2019-09-03",
        "last_observation_date": "2019-09-06",
        "data_arc_in_days": 3,
        "observations_used": 35,
        "orbit_uncertainty": "8",
        "minimum_orbit_intersection": ".0563785",
        "jupiter_tisserand_invariant": "5.172",
        "epoch_osculation": "2458731.5",
        "eccentricity": ".2420910255198055",
        "semi_major_axis": "1.204228179811686",
        "inclination": "24.21758645709978",
        "ascending_node_longitude": "163.23473208",
        "orbital_period": "482.6825579234689",
        "perihelion_distance": ".9126953448012259",
        "perihelion_argument": "256.1614637617054",
        "aphelion_distance": "1.495761014822145",
        "perihelion_time": "2458801.194536798802",
        "mean_anomaly": "308.0195983142469",
        "mean_motion": ".74583179791858",
        "equinox": "J2000",
        "orbit_class": {
            "orbit_class_type": "APO",
            "orbit_class_description": "Near-Earth asteroid orbits which cross the Earth’s orbit similar to that of 1862 Apollo",
            "orbit_class_range": "a (semi-major axis) > 1.0 AU; q (perihelion) < 1.017 AU"
        }
    },
    "is_sentry_object": false
}